[
    {
        "postcode": "0800",
        "locality": "DARWIN",
        "state": "NT",
        "long": 130.83668,
        "lat": -12.458684
    },
    {
        "postcode": "0800",
        "locality": "DARWIN CITY",
        "state": "NT",
        "long": 130.83668,
        "lat": -12.458684
    },
    {
        "postcode": "0801",
        "locality": "DARWIN",
        "state": "NT",
        "long": 130.83668,
        "lat": -12.458684
    },
    {
        "postcode": "0804",
        "locality": "PARAP",
        "state": "NT",
        "long": 130.873315,
        "lat": -12.428017
    },
    {
        "postcode": "0810",
        "locality": "ALAWA",
        "state": "NT",
        "long": 130.866242,
        "lat": -12.381806
    },
    {
        "postcode": "0810",
        "locality": "BRINKIN",
        "state": "NT",
        "long": 130.866242,
        "lat": -12.381806
    },
    {
        "postcode": "0810",
        "locality": "CASUARINA",
        "state": "NT",
        "long": 130.866242,
        "lat": -12.381806
    },
    {
        "postcode": "0810",
        "locality": "COCONUT GROVE",
        "state": "NT",
        "long": 130.8502369,
        "lat": -12.39614166
    },
    {
        "postcode": "0810",
        "locality": "JINGILI",
        "state": "NT",
        "long": 130.866242,
        "lat": -12.381806
    },
    {
        "postcode": "0810",
        "locality": "LEE POINT",
        "state": "NT",
        "long": 130.866242,
        "lat": -12.381806
    },
    {
        "postcode": "0810",
        "locality": "LYONS",
        "state": "NT",
        "long": 130.8885151,
        "lat": -12.35911956
    },
    {
        "postcode": "0810",
        "locality": "MILLNER",
        "state": "NT",
        "long": 130.866242,
        "lat": -12.381806
    },
    {
        "postcode": "0810",
        "locality": "MOIL",
        "state": "NT",
        "long": 130.866242,
        "lat": -12.381806
    },
    {
        "postcode": "0810",
        "locality": "MUIRHEAD",
        "state": "NT",
        "long": 130.8959029,
        "lat": -12.35811947
    },
    {
        "postcode": "0810",
        "locality": "NAKARA",
        "state": "NT",
        "long": 130.866242,
        "lat": -12.381806
    },
    {
        "postcode": "0810",
        "locality": "NIGHTCLIFF",
        "state": "NT",
        "long": 130.866242,
        "lat": -12.381806
    },
    {
        "postcode": "0810",
        "locality": "RAPID CREEK",
        "state": "NT",
        "long": 130.866242,
        "lat": -12.381806
    },
    {
        "postcode": "0810",
        "locality": "TIWI",
        "state": "NT",
        "long": 130.866242,
        "lat": -12.381806
    },
    {
        "postcode": "0810",
        "locality": "WAGAMAN",
        "state": "NT",
        "long": 130.866242,
        "lat": -12.381806
    },
    {
        "postcode": "0810",
        "locality": "WANGURI",
        "state": "NT",
        "long": 130.866242,
        "lat": -12.381806
    },
    {
        "postcode": "0811",
        "locality": "CASUARINA",
        "state": "NT",
        "long": 130.866242,
        "lat": -12.381806
    },
    {
        "postcode": "0812",
        "locality": "ANULA",
        "state": "NT",
        "long": 130.89047,
        "lat": -12.39124885
    },
    {
        "postcode": "0812",
        "locality": "BUFFALO CREEK",
        "state": "NT",
        "long": 130.9209831,
        "lat": -12.34638634
    },
    {
        "postcode": "0812",
        "locality": "HOLMES",
        "state": "NT",
        "long": 130.9268602,
        "lat": -12.38479951
    },
    {
        "postcode": "0812",
        "locality": "KARAMA",
        "state": "NT",
        "long": 130.916098,
        "lat": -12.404778
    },
    {
        "postcode": "0812",
        "locality": "LEANYER",
        "state": "NT",
        "long": 130.916098,
        "lat": -12.404778
    },
    {
        "postcode": "0812",
        "locality": "MALAK",
        "state": "NT",
        "long": 130.916098,
        "lat": -12.404778
    },
    {
        "postcode": "0812",
        "locality": "MARRARA",
        "state": "NT",
        "long": 130.916098,
        "lat": -12.404778
    },
    {
        "postcode": "0812",
        "locality": "NORTHLAKES",
        "state": "NT",
        "long": 130.916098,
        "lat": -12.404778
    },
    {
        "postcode": "0812",
        "locality": "SANDERSON",
        "state": "NT",
        "long": 130.916098,
        "lat": -12.404778
    },
    {
        "postcode": "0812",
        "locality": "WOODLEIGH GARDENS",
        "state": "NT",
        "long": 130.916098,
        "lat": -12.404778
    },
    {
        "postcode": "0812",
        "locality": "WULAGI",
        "state": "NT",
        "long": 130.916098,
        "lat": -12.404778
    },
    {
        "postcode": "0813",
        "locality": "SANDERSON",
        "state": "NT",
        "long": 130.916098,
        "lat": -12.404778
    },
    {
        "postcode": "0814",
        "locality": "NIGHTCLIFF",
        "state": "NT",
        "long": 130.866242,
        "lat": -12.381806
    },
    {
        "postcode": "0815",
        "locality": "CHARLES DARWIN UNIVERSITY",
        "state": "NT",
        "long": 130.869,
        "lat": -12.3718
    },
    {
        "postcode": "0820",
        "locality": "BAGOT",
        "state": "NT",
        "long": 130.873315,
        "lat": -12.428017
    },
    {
        "postcode": "0820",
        "locality": "BAYVIEW",
        "state": "NT",
        "long": 130.873315,
        "lat": -12.428017
    },
    {
        "postcode": "0820",
        "locality": "CHARLES DARWIN",
        "state": "NT",
        "long": 130.873315,
        "lat": -12.428017
    },
    {
        "postcode": "0820",
        "locality": "COONAWARRA",
        "state": "NT",
        "long": 130.873315,
        "lat": -12.428017
    },
    {
        "postcode": "0820",
        "locality": "CULLEN BAY",
        "state": "NT",
        "long": 130.873315,
        "lat": -12.428017
    },
    {
        "postcode": "0820",
        "locality": "DARWIN DC",
        "state": "NT",
        "long": 130.8664593,
        "lat": -12.4255956
    },
    {
        "postcode": "0820",
        "locality": "DARWIN INTERNATIONAL AIRPORT",
        "state": "NT",
        "long": 130.873315,
        "lat": -12.428017
    },
    {
        "postcode": "0820",
        "locality": "DARWIN MC",
        "state": "NT",
        "long": 130.873315,
        "lat": -12.428017
    },
    {
        "postcode": "0820",
        "locality": "EAST POINT",
        "state": "NT",
        "long": 130.873315,
        "lat": -12.428017
    },
    {
        "postcode": "0820",
        "locality": "EATON",
        "state": "NT",
        "long": 130.880692,
        "lat": -12.4123871
    },
    {
        "postcode": "0820",
        "locality": "FANNIE BAY",
        "state": "NT",
        "long": 130.873315,
        "lat": -12.428017
    },
    {
        "postcode": "0820",
        "locality": "LARRAKEYAH",
        "state": "NT",
        "long": 130.873315,
        "lat": -12.428017
    },
    {
        "postcode": "0820",
        "locality": "LUDMILLA",
        "state": "NT",
        "long": 130.873315,
        "lat": -12.428017
    },
    {
        "postcode": "0820",
        "locality": "PARAP",
        "state": "NT",
        "long": 130.873315,
        "lat": -12.428017
    },
    {
        "postcode": "0820",
        "locality": "RAAF BASE DARWIN",
        "state": "NT",
        "long": 130.873315,
        "lat": -12.428017
    },
    {
        "postcode": "0820",
        "locality": "STUART PARK",
        "state": "NT",
        "long": 130.873315,
        "lat": -12.428017
    },
    {
        "postcode": "0820",
        "locality": "THE GARDENS",
        "state": "NT",
        "long": 130.873315,
        "lat": -12.428017
    },
    {
        "postcode": "0820",
        "locality": "THE NARROWS",
        "state": "NT",
        "long": 130.873315,
        "lat": -12.428017
    },
    {
        "postcode": "0820",
        "locality": "WINNELLIE",
        "state": "NT",
        "long": 130.873315,
        "lat": -12.428017
    },
    {
        "postcode": "0820",
        "locality": "WOOLNER",
        "state": "NT",
        "long": 130.873315,
        "lat": -12.428017
    },
    {
        "postcode": "0821",
        "locality": "WINNELLIE",
        "state": "NT",
        "long": 136.947051,
        "lat": -13.643283
    },
    {
        "postcode": "0822",
        "locality": "ACACIA HILLS",
        "state": "NT",
        "long": 136.947051,
        "lat": -13.643283
    },
    {
        "postcode": "0822",
        "locality": "ANGURUGU",
        "state": "NT",
        "long": 136.4612078,
        "lat": -13.98119125
    },
    {
        "postcode": "0822",
        "locality": "ANINDILYAKWA",
        "state": "NT",
        "long": 136.5909616,
        "lat": -13.91698485
    },
    {
        "postcode": "0822",
        "locality": "ANNIE RIVER",
        "state": "NT",
        "long": 133.3848319,
        "lat": -12.9305044
    },
    {
        "postcode": "0822",
        "locality": "BATHURST ISLAND",
        "state": "NT",
        "long": 130.3496894,
        "lat": -11.6035121
    },
    {
        "postcode": "0822",
        "locality": "BEES CREEK",
        "state": "NT",
        "long": 136.947051,
        "lat": -13.643283
    },
    {
        "postcode": "0822",
        "locality": "BELYUEN",
        "state": "NT",
        "long": 130.6831805,
        "lat": -12.53818467
    },
    {
        "postcode": "0822",
        "locality": "BLACK JUNGLE",
        "state": "NT",
        "long": 131.1942977,
        "lat": -12.50224007
    },
    {
        "postcode": "0822",
        "locality": "BLACKMORE",
        "state": "NT",
        "long": 130.9175773,
        "lat": -12.68983104
    },
    {
        "postcode": "0822",
        "locality": "BORDER STORE",
        "state": "NT",
        "long": 136.947051,
        "lat": -13.643283
    },
    {
        "postcode": "0822",
        "locality": "BURRUNDIE",
        "state": "NT",
        "long": 131.8449886,
        "lat": -13.50171859
    },
    {
        "postcode": "0822",
        "locality": "BYNOE",
        "state": "NT",
        "long": 130.6320309,
        "lat": -12.79290292
    },
    {
        "postcode": "0822",
        "locality": "BYNOE HARBOUR",
        "state": "NT",
        "long": 130.5103483,
        "lat": -12.62538633
    },
    {
        "postcode": "0822",
        "locality": "CAMP CREEK",
        "state": "NT",
        "long": 130.9320173,
        "lat": -13.17350435
    },
    {
        "postcode": "0822",
        "locality": "CHANNEL ISLAND",
        "state": "NT",
        "long": 130.8605303,
        "lat": -12.55219169
    },
    {
        "postcode": "0822",
        "locality": "CHARLES DARWIN",
        "state": "NT",
        "long": 130.8766339,
        "lat": -12.45079537
    },
    {
        "postcode": "0822",
        "locality": "CHARLOTTE",
        "state": "NT",
        "long": 130.8116588,
        "lat": -12.84045347
    },
    {
        "postcode": "0822",
        "locality": "CLARAVALE",
        "state": "NT",
        "long": 131.4120025,
        "lat": -14.5318367
    },
    {
        "postcode": "0822",
        "locality": "COBOURG",
        "state": "NT",
        "long": 132.1914189,
        "lat": -11.34530652
    },
    {
        "postcode": "0822",
        "locality": "COLLETT CREEK",
        "state": "NT",
        "long": 130.9188279,
        "lat": -12.90975469
    },
    {
        "postcode": "0822",
        "locality": "COOMALIE CREEK",
        "state": "NT",
        "long": 131.1688363,
        "lat": -13.02119253
    },
    {
        "postcode": "0822",
        "locality": "COX PENINSULA",
        "state": "NT",
        "long": 136.947051,
        "lat": -13.643283
    },
    {
        "postcode": "0822",
        "locality": "CROKER ISLAND",
        "state": "NT",
        "long": 136.947051,
        "lat": -13.643283
    },
    {
        "postcode": "0822",
        "locality": "DALY RIVER",
        "state": "NT",
        "long": 136.947051,
        "lat": -13.643283
    },
    {
        "postcode": "0822",
        "locality": "DARWIN MC",
        "state": "NT",
        "long": 136.947051,
        "lat": -13.643283
    },
    {
        "postcode": "0822",
        "locality": "DARWIN RIVER DAM",
        "state": "NT",
        "long": 131.038648,
        "lat": -12.91652424
    },
    {
        "postcode": "0822",
        "locality": "DELISSAVILLE",
        "state": "NT",
        "long": 130.995425,
        "lat": -12.505532
    },
    {
        "postcode": "0822",
        "locality": "DOUGLAS-DALY",
        "state": "NT",
        "long": 131.48274,
        "lat": -13.81785615
    },
    {
        "postcode": "0822",
        "locality": "EAST ARM",
        "state": "NT",
        "long": 130.9027533,
        "lat": -12.48005564
    },
    {
        "postcode": "0822",
        "locality": "EAST ARNHEM",
        "state": "NT",
        "long": 136.4330338,
        "lat": -12.44602304
    },
    {
        "postcode": "0822",
        "locality": "ELRUNDIE",
        "state": "NT",
        "long": 130.940905,
        "lat": -12.48861681
    },
    {
        "postcode": "0822",
        "locality": "EVA VALLEY",
        "state": "NT",
        "long": 131.0031474,
        "lat": -13.12725377
    },
    {
        "postcode": "0822",
        "locality": "FINNISS VALLEY",
        "state": "NT",
        "long": 130.9517827,
        "lat": -13.06448685
    },
    {
        "postcode": "0822",
        "locality": "FLEMING",
        "state": "NT",
        "long": 131.2975161,
        "lat": -13.85090799
    },
    {
        "postcode": "0822",
        "locality": "FLY CREEK",
        "state": "NT",
        "long": 131.0700157,
        "lat": -12.79587253
    },
    {
        "postcode": "0822",
        "locality": "FREDS PASS",
        "state": "NT",
        "long": 131.0515258,
        "lat": -12.53862952
    },
    {
        "postcode": "0822",
        "locality": "GALIWINKU",
        "state": "NT",
        "long": 135.5864427,
        "lat": -12.00777086
    },
    {
        "postcode": "0822",
        "locality": "GLYDE POINT",
        "state": "NT",
        "long": 131.0799794,
        "lat": -12.17971082
    },
    {
        "postcode": "0822",
        "locality": "GOULBOURN ISLAND",
        "state": "NT",
        "long": 136.947051,
        "lat": -13.643283
    },
    {
        "postcode": "0822",
        "locality": "GOULBURN ISLAND",
        "state": "NT",
        "long": 133.4548484,
        "lat": -11.4973068
    },
    {
        "postcode": "0822",
        "locality": "GUNBALANYA",
        "state": "NT",
        "long": 133.0492311,
        "lat": -12.34692447
    },
    {
        "postcode": "0822",
        "locality": "GUNN POINT",
        "state": "NT",
        "long": 136.947051,
        "lat": -13.643283
    },
    {
        "postcode": "0822",
        "locality": "HAYES CREEK",
        "state": "NT",
        "long": 136.947051,
        "lat": -13.643283
    },
    {
        "postcode": "0822",
        "locality": "HIDDEN VALLEY",
        "state": "NT",
        "long": 130.9036719,
        "lat": -12.45024526
    },
    {
        "postcode": "0822",
        "locality": "HOTHAM",
        "state": "NT",
        "long": 131.4058522,
        "lat": -12.34404225
    },
    {
        "postcode": "0822",
        "locality": "HUGHES",
        "state": "NT",
        "long": 131.1007772,
        "lat": -12.68638471
    },
    {
        "postcode": "0822",
        "locality": "KAKADU",
        "state": "NT",
        "long": 132.4751149,
        "lat": -12.8662473
    },
    {
        "postcode": "0822",
        "locality": "KOOLPINYAH",
        "state": "NT",
        "long": 131.2102168,
        "lat": -12.37090569
    },
    {
        "postcode": "0822",
        "locality": "LAKE BENNETT",
        "state": "NT",
        "long": 131.1944707,
        "lat": -12.93083352
    },
    {
        "postcode": "0822",
        "locality": "LAMBELLS LAGOON",
        "state": "NT",
        "long": 136.947051,
        "lat": -13.643283
    },
    {
        "postcode": "0822",
        "locality": "LITCHFIELD PARK",
        "state": "NT",
        "long": 130.8462398,
        "lat": -13.25317338
    },
    {
        "postcode": "0822",
        "locality": "LIVINGSTONE",
        "state": "NT",
        "long": 136.947051,
        "lat": -13.643283
    },
    {
        "postcode": "0822",
        "locality": "LLOYD CREEK",
        "state": "NT",
        "long": 131.1457668,
        "lat": -12.66634037
    },
    {
        "postcode": "0822",
        "locality": "MANDORAH",
        "state": "NT",
        "long": 130.7615787,
        "lat": -12.44295777
    },
    {
        "postcode": "0822",
        "locality": "MANINGRIDA",
        "state": "NT",
        "long": 136.947051,
        "lat": -13.643283
    },
    {
        "postcode": "0822",
        "locality": "MARANUNGA",
        "state": "NT",
        "long": 130.7085705,
        "lat": -13.70834554
    },
    {
        "postcode": "0822",
        "locality": "MARGARET RIVER",
        "state": "NT",
        "long": 131.3574052,
        "lat": -13.19932137
    },
    {
        "postcode": "0822",
        "locality": "MCMINNS LAGOON",
        "state": "NT",
        "long": 136.947051,
        "lat": -13.643283
    },
    {
        "postcode": "0822",
        "locality": "MICKETT CREEK",
        "state": "NT",
        "long": 130.951697,
        "lat": -12.379529
    },
    {
        "postcode": "0822",
        "locality": "MIDDLE POINT",
        "state": "NT",
        "long": 136.947051,
        "lat": -13.643283
    },
    {
        "postcode": "0822",
        "locality": "MILINGIMBI",
        "state": "NT",
        "long": 134.9172943,
        "lat": -12.10344037
    },
    {
        "postcode": "0822",
        "locality": "MILLWOOD",
        "state": "NT",
        "long": 136.947051,
        "lat": -13.643283
    },
    {
        "postcode": "0822",
        "locality": "MILYAKBURRA",
        "state": "NT",
        "long": 136.202001,
        "lat": -13.77934879
    },
    {
        "postcode": "0822",
        "locality": "MINJILANG",
        "state": "NT",
        "long": 132.5724813,
        "lat": -11.14470594
    },
    {
        "postcode": "0822",
        "locality": "MOUNT BUNDEY",
        "state": "NT",
        "long": 131.751956,
        "lat": -13.02955913
    },
    {
        "postcode": "0822",
        "locality": "MURRUMUJUK",
        "state": "NT",
        "long": 131.0779057,
        "lat": -12.29096291
    },
    {
        "postcode": "0822",
        "locality": "NAUIYU",
        "state": "NT",
        "long": 130.7310542,
        "lat": -13.72157548
    },
    {
        "postcode": "0822",
        "locality": "NEMARLUK",
        "state": "NT",
        "long": 130.4543865,
        "lat": -14.62289167
    },
    {
        "postcode": "0822",
        "locality": "NGANMARRIYANGA",
        "state": "NT",
        "long": 129.8834932,
        "lat": -14.33497868
    },
    {
        "postcode": "0822",
        "locality": "NGUIU",
        "state": "NT",
        "long": 136.947051,
        "lat": -13.643283
    },
    {
        "postcode": "0822",
        "locality": "NUMBULWAR",
        "state": "NT",
        "long": 135.727696,
        "lat": -14.28113146
    },
    {
        "postcode": "0822",
        "locality": "NUMBURINDI",
        "state": "NT",
        "long": 135.7946389,
        "lat": -13.95994028
    },
    {
        "postcode": "0822",
        "locality": "OENPELLI",
        "state": "NT",
        "long": 136.947051,
        "lat": -13.643283
    },
    {
        "postcode": "0822",
        "locality": "PEPPIMENARTI",
        "state": "NT",
        "long": 130.082796,
        "lat": -14.1456977
    },
    {
        "postcode": "0822",
        "locality": "PIRLANGIMPI",
        "state": "NT",
        "long": 130.4214678,
        "lat": -11.39026066
    },
    {
        "postcode": "0822",
        "locality": "POINT STEPHENS",
        "state": "NT",
        "long": 136.947051,
        "lat": -13.643283
    },
    {
        "postcode": "0822",
        "locality": "POINT STUART",
        "state": "NT",
        "long": 131.8321645,
        "lat": -12.54034189
    },
    {
        "postcode": "0822",
        "locality": "PULARUMPI",
        "state": "NT",
        "long": 136.947051,
        "lat": -13.643283
    },
    {
        "postcode": "0822",
        "locality": "PULUMPA",
        "state": "NT",
        "long": 136.947051,
        "lat": -13.643283
    },
    {
        "postcode": "0822",
        "locality": "RAKULA",
        "state": "NT",
        "long": 130.3707089,
        "lat": -13.05159634
    },
    {
        "postcode": "0822",
        "locality": "RAMINGINING",
        "state": "NT",
        "long": 134.9259152,
        "lat": -12.32899612
    },
    {
        "postcode": "0822",
        "locality": "ROBIN FALLS",
        "state": "NT",
        "long": 131.1214742,
        "lat": -13.38650542
    },
    {
        "postcode": "0822",
        "locality": "RUM JUNGLE",
        "state": "NT",
        "long": 131.0198663,
        "lat": -12.99988524
    },
    {
        "postcode": "0822",
        "locality": "SANDPALMS ROADHOUSE",
        "state": "NT",
        "long": 133.3848319,
        "lat": -12.9305044
    },
    {
        "postcode": "0822",
        "locality": "SOUTHPORT",
        "state": "NT",
        "long": 136.947051,
        "lat": -13.643283
    },
    {
        "postcode": "0822",
        "locality": "STAPLETON",
        "state": "NT",
        "long": 131.0258358,
        "lat": -13.18414806
    },
    {
        "postcode": "0822",
        "locality": "THAMARRURR",
        "state": "NT",
        "long": 129.6399677,
        "lat": -14.20132457
    },
    {
        "postcode": "0822",
        "locality": "TIPPERARY",
        "state": "NT",
        "long": 130.619275,
        "lat": -14.03882235
    },
    {
        "postcode": "0822",
        "locality": "TIVENDALE",
        "state": "NT",
        "long": 130.9502272,
        "lat": -12.46528731
    },
    {
        "postcode": "0822",
        "locality": "TIWI ISLANDS",
        "state": "NT",
        "long": 131.1875059,
        "lat": -11.51399925
    },
    {
        "postcode": "0822",
        "locality": "TORTILLA FLATS",
        "state": "NT",
        "long": 131.1778852,
        "lat": -13.08686447
    },
    {
        "postcode": "0822",
        "locality": "TUMBLING WATERS",
        "state": "NT",
        "long": 130.9609622,
        "lat": -12.75687265
    },
    {
        "postcode": "0822",
        "locality": "UMBAKUMBA",
        "state": "NT",
        "long": 136.947051,
        "lat": -13.643283
    },
    {
        "postcode": "0822",
        "locality": "VERNON ISLANDS",
        "state": "NT",
        "long": 131.0936969,
        "lat": -12.05953061
    },
    {
        "postcode": "0822",
        "locality": "VIRGINIA",
        "state": "NT",
        "long": 136.947051,
        "lat": -13.643283
    },
    {
        "postcode": "0822",
        "locality": "WADEYE",
        "state": "NT",
        "long": 136.947051,
        "lat": -13.643283
    },
    {
        "postcode": "0822",
        "locality": "WAGAIT BEACH",
        "state": "NT",
        "long": 136.947051,
        "lat": -13.643283
    },
    {
        "postcode": "0822",
        "locality": "WAK WAK",
        "state": "NT",
        "long": 131.236971,
        "lat": -12.66325075
    },
    {
        "postcode": "0822",
        "locality": "WARRUWI",
        "state": "NT",
        "long": 133.3782542,
        "lat": -11.65786276
    },
    {
        "postcode": "0822",
        "locality": "WEDDELL",
        "state": "NT",
        "long": 136.947051,
        "lat": -13.643283
    },
    {
        "postcode": "0822",
        "locality": "WEST ARNHEM",
        "state": "NT",
        "long": 133.6471255,
        "lat": -12.25508592
    },
    {
        "postcode": "0822",
        "locality": "WICKHAM",
        "state": "NT",
        "long": 130.9100115,
        "lat": -12.54731927
    },
    {
        "postcode": "0822",
        "locality": "WINNELLIE",
        "state": "NT",
        "long": 136.947051,
        "lat": -13.643283
    },
    {
        "postcode": "0822",
        "locality": "WISHART",
        "state": "NT",
        "long": 130.9321025,
        "lat": -12.45712713
    },
    {
        "postcode": "0822",
        "locality": "WOOLANING",
        "state": "NT",
        "long": 136.947051,
        "lat": -13.643283
    },
    {
        "postcode": "0822",
        "locality": "WURRUMIYANGA",
        "state": "NT",
        "long": 130.6254299,
        "lat": -11.75841975
    },
    {
        "postcode": "0828",
        "locality": "BERRIMAH",
        "state": "NT",
        "long": 130.932068,
        "lat": -12.432024
    },
    {
        "postcode": "0828",
        "locality": "KNUCKEY LAGOON",
        "state": "NT",
        "long": 130.932068,
        "lat": -12.432024
    },
    {
        "postcode": "0829",
        "locality": "HOLTZE",
        "state": "NT",
        "long": 130.9597671,
        "lat": -12.45763297
    },
    {
        "postcode": "0829",
        "locality": "PINELANDS",
        "state": "NT",
        "long": 130.9597671,
        "lat": -12.45763297
    },
    {
        "postcode": "0830",
        "locality": "ARCHER",
        "state": "NT",
        "long": 130.9580765,
        "lat": -12.52139649
    },
    {
        "postcode": "0830",
        "locality": "DRIVER",
        "state": "NT",
        "long": 130.974879,
        "lat": -12.475071
    },
    {
        "postcode": "0830",
        "locality": "DURACK",
        "state": "NT",
        "long": 130.974879,
        "lat": -12.475071
    },
    {
        "postcode": "0830",
        "locality": "FARRAR",
        "state": "NT",
        "long": 130.974879,
        "lat": -12.475071
    },
    {
        "postcode": "0830",
        "locality": "GRAY",
        "state": "NT",
        "long": 130.974879,
        "lat": -12.475071
    },
    {
        "postcode": "0830",
        "locality": "MARLOW LAGOON",
        "state": "NT",
        "long": 130.974879,
        "lat": -12.475071
    },
    {
        "postcode": "0830",
        "locality": "MOULDEN",
        "state": "NT",
        "long": 130.974879,
        "lat": -12.475071
    },
    {
        "postcode": "0830",
        "locality": "PALMERSTON",
        "state": "NT",
        "long": 130.974879,
        "lat": -12.475071
    },
    {
        "postcode": "0830",
        "locality": "SHOAL BAY",
        "state": "NT",
        "long": 130.974879,
        "lat": -12.475071
    },
    {
        "postcode": "0830",
        "locality": "WOODROFFE",
        "state": "NT",
        "long": 130.974879,
        "lat": -12.475071
    },
    {
        "postcode": "0830",
        "locality": "YARRAWONGA",
        "state": "NT",
        "long": 130.974879,
        "lat": -12.475071
    },
    {
        "postcode": "0831",
        "locality": "PALMERSTON",
        "state": "NT",
        "long": 130.974879,
        "lat": -12.475071
    },
    {
        "postcode": "0832",
        "locality": "BAKEWELL",
        "state": "NT",
        "long": 130.9936551,
        "lat": -12.49684676
    },
    {
        "postcode": "0832",
        "locality": "BELLAMACK",
        "state": "NT",
        "long": 130.9830307,
        "lat": -12.51562954
    },
    {
        "postcode": "0832",
        "locality": "GUNN",
        "state": "NT",
        "long": 130.957712,
        "lat": -12.502817
    },
    {
        "postcode": "0832",
        "locality": "JOHNSTON",
        "state": "NT",
        "long": 131.0063506,
        "lat": -12.49297483
    },
    {
        "postcode": "0832",
        "locality": "MITCHELL",
        "state": "NT",
        "long": 130.957712,
        "lat": -12.502817
    },
    {
        "postcode": "0832",
        "locality": "ROSEBERY",
        "state": "NT",
        "long": 130.957712,
        "lat": -12.502817
    },
    {
        "postcode": "0832",
        "locality": "ROSEBERY HEIGHTS",
        "state": "NT",
        "long": 130.957712,
        "lat": -12.502817
    },
    {
        "postcode": "0832",
        "locality": "ZUCCOLI",
        "state": "NT",
        "long": 131.0058233,
        "lat": -12.51070433
    },
    {
        "postcode": "0834",
        "locality": "VIRGINIA",
        "state": "NT",
        "long": 131.0234875,
        "lat": -12.54686461
    },
    {
        "postcode": "0835",
        "locality": "Coolalinga",
        "state": "NT",
        "long": 131.0415,
        "lat": -12.5231
    },
    {
        "postcode": "0835",
        "locality": "HOWARD SPRINGS",
        "state": "NT",
        "long": 131.013741,
        "lat": -12.452568
    },
    {
        "postcode": "0835",
        "locality": "VIRGINIA",
        "state": "NT",
        "long": 131.013741,
        "lat": -12.452568
    },
    {
        "postcode": "0836",
        "locality": "HERBERT",
        "state": "NT",
        "long": 131.100668,
        "lat": -12.557754
    },
    {
        "postcode": "0836",
        "locality": "HUMPTY DOO",
        "state": "NT",
        "long": 131.1272564,
        "lat": -12.58487247
    },
    {
        "postcode": "0837",
        "locality": "MANTON",
        "state": "NT",
        "long": 131.016647,
        "lat": -12.704767
    },
    {
        "postcode": "0837",
        "locality": "NOONAMAH",
        "state": "NT",
        "long": 131.094044,
        "lat": -12.64187171
    },
    {
        "postcode": "0838",
        "locality": "BERRY SPRINGS",
        "state": "NT",
        "long": 131.0067348,
        "lat": -12.71878122
    },
    {
        "postcode": "0839",
        "locality": "COOLALINGA",
        "state": "NT",
        "long": 131.0402017,
        "lat": -12.52001124
    },
    {
        "postcode": "0840",
        "locality": "DUNDEE BEACH",
        "state": "NT",
        "long": 130.3529386,
        "lat": -12.72451307
    },
    {
        "postcode": "0840",
        "locality": "DUNDEE DOWNS",
        "state": "NT",
        "long": 130.5109414,
        "lat": -12.76554875
    },
    {
        "postcode": "0840",
        "locality": "DUNDEE FOREST",
        "state": "NT",
        "long": 130.4518371,
        "lat": -12.71366907
    },
    {
        "postcode": "0841",
        "locality": "DARWIN RIVER",
        "state": "NT",
        "long": 130.969862,
        "lat": -12.81922863
    },
    {
        "postcode": "0845",
        "locality": "BATCHELOR",
        "state": "NT",
        "long": 131.038475,
        "lat": -13.045118
    },
    {
        "postcode": "0846",
        "locality": "ADELAIDE RIVER",
        "state": "NT",
        "long": 131.095002,
        "lat": -13.210299
    },
    {
        "postcode": "0847",
        "locality": "PINE CREEK",
        "state": "NT",
        "long": 131.759154,
        "lat": -14.012122
    },
    {
        "postcode": "0850",
        "locality": "COSSACK",
        "state": "NT",
        "long": 132.1721041,
        "lat": -14.46369137
    },
    {
        "postcode": "0850",
        "locality": "EMUNGALAN",
        "state": "NT",
        "long": 132.2418315,
        "lat": -14.4161067
    },
    {
        "postcode": "0850",
        "locality": "KATHERINE",
        "state": "NT",
        "long": 132.365352,
        "lat": -14.195911
    },
    {
        "postcode": "0850",
        "locality": "KATHERINE EAST",
        "state": "NT",
        "long": 132.2874375,
        "lat": -14.46576308
    },
    {
        "postcode": "0850",
        "locality": "KATHERINE SOUTH",
        "state": "NT",
        "long": 132.2598385,
        "lat": -14.48180579
    },
    {
        "postcode": "0850",
        "locality": "LANSDOWNE",
        "state": "NT",
        "long": 132.3888705,
        "lat": -14.43162875
    },
    {
        "postcode": "0851",
        "locality": "KATHERINE",
        "state": "NT",
        "long": 137.050719,
        "lat": -15.711424
    },
    {
        "postcode": "0852",
        "locality": "ARNOLD",
        "state": "NT",
        "long": 134.3769898,
        "lat": -16.07839
    },
    {
        "postcode": "0852",
        "locality": "BAINES",
        "state": "NT",
        "long": 129.4842959,
        "lat": -15.90897497
    },
    {
        "postcode": "0852",
        "locality": "BARUNGA",
        "state": "NT",
        "long": 132.8673924,
        "lat": -14.52664756
    },
    {
        "postcode": "0852",
        "locality": "BESWICK",
        "state": "NT",
        "long": 137.050719,
        "lat": -15.711424
    },
    {
        "postcode": "0852",
        "locality": "BESWICK CREEK",
        "state": "NT",
        "long": 133.3001701,
        "lat": -14.43207837
    },
    {
        "postcode": "0852",
        "locality": "BINJARI",
        "state": "NT",
        "long": 132.1841678,
        "lat": -14.5501072
    },
    {
        "postcode": "0852",
        "locality": "BIRDUM",
        "state": "NT",
        "long": 133.5378622,
        "lat": -16.23196977
    },
    {
        "postcode": "0852",
        "locality": "BRADSHAW",
        "state": "NT",
        "long": 130.534439,
        "lat": -15.09737856
    },
    {
        "postcode": "0852",
        "locality": "BUCHANAN",
        "state": "NT",
        "long": 129.6208296,
        "lat": -17.80951107
    },
    {
        "postcode": "0852",
        "locality": "BULMAN WEEMOL",
        "state": "NT",
        "long": 134.3037985,
        "lat": -13.65022603
    },
    {
        "postcode": "0852",
        "locality": "CRESWELL",
        "state": "NT",
        "long": 135.8076202,
        "lat": -17.82741422
    },
    {
        "postcode": "0852",
        "locality": "DAGURAGU",
        "state": "NT",
        "long": 130.8021087,
        "lat": -17.41926848
    },
    {
        "postcode": "0852",
        "locality": "DALY WATERS",
        "state": "NT",
        "long": 137.050719,
        "lat": -15.711424
    },
    {
        "postcode": "0852",
        "locality": "DELAMERE",
        "state": "NT",
        "long": 131.6691884,
        "lat": -15.4019318
    },
    {
        "postcode": "0852",
        "locality": "DUNMARRA",
        "state": "NT",
        "long": 137.050719,
        "lat": -15.711424
    },
    {
        "postcode": "0852",
        "locality": "EDITH",
        "state": "NT",
        "long": 131.8172473,
        "lat": -13.99360017
    },
    {
        "postcode": "0852",
        "locality": "EDITH RIVER",
        "state": "NT",
        "long": 137.050719,
        "lat": -15.711424
    },
    {
        "postcode": "0852",
        "locality": "ELSEY",
        "state": "NT",
        "long": 133.546834,
        "lat": -15.07384438
    },
    {
        "postcode": "0852",
        "locality": "ELSEY STATION",
        "state": "NT",
        "long": 137.050719,
        "lat": -15.711424
    },
    {
        "postcode": "0852",
        "locality": "FLORINA",
        "state": "NT",
        "long": 131.9083299,
        "lat": -14.5152899
    },
    {
        "postcode": "0852",
        "locality": "FLYING FOX",
        "state": "NT",
        "long": 134.1976975,
        "lat": -14.15932656
    },
    {
        "postcode": "0852",
        "locality": "GREGORY",
        "state": "NT",
        "long": 130.3336523,
        "lat": -16.34525224
    },
    {
        "postcode": "0852",
        "locality": "GULUNG MARDRULK",
        "state": "NT",
        "long": 133.5636211,
        "lat": -13.53798419
    },
    {
        "postcode": "0852",
        "locality": "GURINDJI",
        "state": "NT",
        "long": 131.0885202,
        "lat": -18.22634802
    },
    {
        "postcode": "0852",
        "locality": "HELEN SPRINGS STATION",
        "state": "NT",
        "long": 133.876,
        "lat": -18.4336
    },
    {
        "postcode": "0852",
        "locality": "JILKMINGGAN",
        "state": "NT",
        "long": 133.292842,
        "lat": -14.96147762
    },
    {
        "postcode": "0852",
        "locality": "KALKARINDJI",
        "state": "NT",
        "long": 130.832639,
        "lat": -17.44449505
    },
    {
        "postcode": "0852",
        "locality": "KALKARINGI",
        "state": "NT",
        "long": 137.050719,
        "lat": -15.711424
    },
    {
        "postcode": "0852",
        "locality": "KATHERINE",
        "state": "NT",
        "long": 137.050719,
        "lat": -15.711424
    },
    {
        "postcode": "0852",
        "locality": "LAJAMANU",
        "state": "NT",
        "long": 137.050719,
        "lat": -15.711424
    },
    {
        "postcode": "0852",
        "locality": "LARRIMAH",
        "state": "NT",
        "long": 137.050719,
        "lat": -15.711424
    },
    {
        "postcode": "0852",
        "locality": "LIMMEN",
        "state": "NT",
        "long": 134.936628,
        "lat": -15.104596
    },
    {
        "postcode": "0852",
        "locality": "MANBULLOO",
        "state": "NT",
        "long": 137.050719,
        "lat": -15.711424
    },
    {
        "postcode": "0852",
        "locality": "MARANBOY",
        "state": "NT",
        "long": 132.864374,
        "lat": -14.524609
    },
    {
        "postcode": "0852",
        "locality": "MATARANKA",
        "state": "NT",
        "long": 133.0434117,
        "lat": -14.96983009
    },
    {
        "postcode": "0852",
        "locality": "MCARTHUR",
        "state": "NT",
        "long": 135.9389164,
        "lat": -16.26282987
    },
    {
        "postcode": "0852",
        "locality": "MINIYERI",
        "state": "NT",
        "long": 134.0797817,
        "lat": -15.2254374
    },
    {
        "postcode": "0852",
        "locality": "NGUKURR",
        "state": "NT",
        "long": 134.7440734,
        "lat": -14.73158731
    },
    {
        "postcode": "0852",
        "locality": "NITMILUK",
        "state": "NT",
        "long": 132.5362579,
        "lat": -14.11434123
    },
    {
        "postcode": "0852",
        "locality": "NUMBULWAR",
        "state": "NT",
        "long": 137.050719,
        "lat": -15.711424
    },
    {
        "postcode": "0852",
        "locality": "PELLEW ISLANDS",
        "state": "NT",
        "long": 136.8142529,
        "lat": -15.66080497
    },
    {
        "postcode": "0852",
        "locality": "PIGEON HOLE",
        "state": "NT",
        "long": 131.215146,
        "lat": -16.79514658
    },
    {
        "postcode": "0852",
        "locality": "ROBINSON RIVER",
        "state": "NT",
        "long": 136.9827659,
        "lat": -16.75852817
    },
    {
        "postcode": "0852",
        "locality": "STURT PLATEAU",
        "state": "NT",
        "long": 132.6120699,
        "lat": -15.65938858
    },
    {
        "postcode": "0852",
        "locality": "TANAMI EAST",
        "state": "NT",
        "long": 132.7009096,
        "lat": -18.61662725
    },
    {
        "postcode": "0852",
        "locality": "TIMBER CREEK",
        "state": "NT",
        "long": 130.4960315,
        "lat": -15.66155041
    },
    {
        "postcode": "0852",
        "locality": "TOP SPRINGS",
        "state": "NT",
        "long": 131.8014849,
        "lat": -16.54851117
    },
    {
        "postcode": "0852",
        "locality": "URALLA",
        "state": "NT",
        "long": 132.2980338,
        "lat": -14.49121431
    },
    {
        "postcode": "0852",
        "locality": "VENN",
        "state": "NT",
        "long": 132.539518,
        "lat": -14.55560838
    },
    {
        "postcode": "0852",
        "locality": "VICTORIA RIVER",
        "state": "NT",
        "long": 131.5356628,
        "lat": -16.66340592
    },
    {
        "postcode": "0852",
        "locality": "VICTORIA RIVER DOWNS",
        "state": "NT",
        "long": 137.050719,
        "lat": -15.711424
    },
    {
        "postcode": "0852",
        "locality": "WARUMUNGU",
        "state": "NT",
        "long": 133.952899,
        "lat": -20.02830877
    },
    {
        "postcode": "0852",
        "locality": "WAVE HILL",
        "state": "NT",
        "long": 137.050719,
        "lat": -15.711424
    },
    {
        "postcode": "0852",
        "locality": "WILTON",
        "state": "NT",
        "long": 134.9242872,
        "lat": -14.43717242
    },
    {
        "postcode": "0852",
        "locality": "YARRALIN",
        "state": "NT",
        "long": 130.8418661,
        "lat": -16.4525888
    },
    {
        "postcode": "0853",
        "locality": "TINDAL",
        "state": "NT",
        "long": 132.3791217,
        "lat": -14.53113365
    },
    {
        "postcode": "0853",
        "locality": "TINDAL RAAF",
        "state": "NT",
        "long": 132.417121,
        "lat": -14.558122
    },
    {
        "postcode": "0854",
        "locality": "BORROLOOLA",
        "state": "NT",
        "long": 136.424191,
        "lat": -16.503809
    },
    {
        "postcode": "0854",
        "locality": "KING ASH BAY",
        "state": "NT",
        "long": 136.3091159,
        "lat": -16.070754
    },
    {
        "postcode": "0860",
        "locality": "TENNANT CREEK",
        "state": "NT",
        "long": 134.173599,
        "lat": -19.641301
    },
    {
        "postcode": "0861",
        "locality": "BRUNCHILLY",
        "state": "NT",
        "long": 134.500504,
        "lat": -18.874571
    },
    {
        "postcode": "0861",
        "locality": "TENNANT CREEK",
        "state": "NT",
        "long": 134.463153,
        "lat": -18.251528
    },
    {
        "postcode": "0862",
        "locality": "AVON DOWNS",
        "state": "NT",
        "long": 134.463153,
        "lat": -18.251528
    },
    {
        "postcode": "0862",
        "locality": "CALVERT",
        "state": "NT",
        "long": 137.4667145,
        "lat": -16.79698963
    },
    {
        "postcode": "0862",
        "locality": "CRESSWELL DOWNS",
        "state": "NT",
        "long": 134.463153,
        "lat": -18.251528
    },
    {
        "postcode": "0862",
        "locality": "ELLIOTT",
        "state": "NT",
        "long": 134.463153,
        "lat": -18.251528
    },
    {
        "postcode": "0862",
        "locality": "HELEN SPRINGS",
        "state": "NT",
        "long": 134.463153,
        "lat": -18.251528
    },
    {
        "postcode": "0862",
        "locality": "MUCKATY STATION",
        "state": "NT",
        "long": 134.463153,
        "lat": -18.251528
    },
    {
        "postcode": "0862",
        "locality": "NEWCASTLE WATERS",
        "state": "NT",
        "long": 134.463153,
        "lat": -18.251528
    },
    {
        "postcode": "0862",
        "locality": "NICHOLSON",
        "state": "NT",
        "long": 137.6072968,
        "lat": -18.45128815
    },
    {
        "postcode": "0862",
        "locality": "PAMAYU",
        "state": "NT",
        "long": 134.055559,
        "lat": -17.60786065
    },
    {
        "postcode": "0862",
        "locality": "PHILLIP CREEK STATION",
        "state": "NT",
        "long": 134.463153,
        "lat": -18.251528
    },
    {
        "postcode": "0862",
        "locality": "RENNER SPRINGS",
        "state": "NT",
        "long": 134.463153,
        "lat": -18.251528
    },
    {
        "postcode": "0862",
        "locality": "TABLELANDS",
        "state": "NT",
        "long": 135.5134605,
        "lat": -18.92862068
    },
    {
        "postcode": "0862",
        "locality": "TENNANT CREEK",
        "state": "NT",
        "long": 134.463153,
        "lat": -18.251528
    },
    {
        "postcode": "0862",
        "locality": "THREE WAYS",
        "state": "NT",
        "long": 134.463153,
        "lat": -18.251528
    },
    {
        "postcode": "0862",
        "locality": "WARREGO",
        "state": "NT",
        "long": 134.463153,
        "lat": -18.251528
    },
    {
        "postcode": "0862",
        "locality": "WOLLOGORANG STATION",
        "state": "NT",
        "long": 134.463153,
        "lat": -18.251528
    },
    {
        "postcode": "0862",
        "locality": "WYCLIFFE WELL",
        "state": "NT",
        "long": 134.463153,
        "lat": -18.251528
    },
    {
        "postcode": "0870",
        "locality": "ALICE SPRINGS",
        "state": "NT",
        "long": 133.86314,
        "lat": -23.702291
    },
    {
        "postcode": "0870",
        "locality": "ARALUEN",
        "state": "NT",
        "long": 133.853957,
        "lat": -23.6967102
    },
    {
        "postcode": "0870",
        "locality": "BRAITLING",
        "state": "NT",
        "long": 133.8633044,
        "lat": -23.67527346
    },
    {
        "postcode": "0870",
        "locality": "CICCONE",
        "state": "NT",
        "long": 133.8678028,
        "lat": -23.69234565
    },
    {
        "postcode": "0870",
        "locality": "DESERT SPRINGS",
        "state": "NT",
        "long": 133.8867138,
        "lat": -23.71460854
    },
    {
        "postcode": "0870",
        "locality": "EAST SIDE",
        "state": "NT",
        "long": 133.8971833,
        "lat": -23.69030677
    },
    {
        "postcode": "0870",
        "locality": "GILLEN",
        "state": "NT",
        "long": 133.8660005,
        "lat": -23.71080361
    },
    {
        "postcode": "0870",
        "locality": "SADADEEN",
        "state": "NT",
        "long": 133.9010002,
        "lat": -23.70326702
    },
    {
        "postcode": "0870",
        "locality": "STUART",
        "state": "NT",
        "long": 133.8823863,
        "lat": -23.6730301
    },
    {
        "postcode": "0870",
        "locality": "THE GAP",
        "state": "NT",
        "long": 133.8740968,
        "lat": -23.71393895
    },
    {
        "postcode": "0870",
        "locality": "WHITE GUMS",
        "state": "NT",
        "long": 133.7578528,
        "lat": -23.75188561
    },
    {
        "postcode": "0871",
        "locality": "ALICE SPRINGS",
        "state": "NT",
        "long": 131.298809,
        "lat": -21.949513
    },
    {
        "postcode": "0872",
        "locality": "AHERRENGE",
        "state": "NT",
        "long": 131.298809,
        "lat": -21.949513
    },
    {
        "postcode": "0872",
        "locality": "ALI CURUNG",
        "state": "NT",
        "long": 131.298809,
        "lat": -21.949513
    },
    {
        "postcode": "0872",
        "locality": "ALICE SPRINGS",
        "state": "NT",
        "long": 131.298809,
        "lat": -21.949513
    },
    {
        "postcode": "0872",
        "locality": "AMATA",
        "state": "NT",
        "long": 131.298809,
        "lat": -21.949513
    },
    {
        "postcode": "0872",
        "locality": "AMOONGUNA",
        "state": "NT",
        "long": 131.298809,
        "lat": -21.949513
    },
    {
        "postcode": "0872",
        "locality": "AMPILATWATJA",
        "state": "NT",
        "long": 135.2469212,
        "lat": -21.66430243
    },
    {
        "postcode": "0872",
        "locality": "ANANGU PITJANTJATJARA YANKUNYTJATJARA",
        "state": "NT",
        "long": 131.2056973,
        "lat": -27.07728273
    },
    {
        "postcode": "0872",
        "locality": "ANATYE",
        "state": "NT",
        "long": 136.9536687,
        "lat": -22.99400232
    },
    {
        "postcode": "0872",
        "locality": "ANMATJERE",
        "state": "NT",
        "long": 134.0970699,
        "lat": -22.3989311
    },
    {
        "postcode": "0872",
        "locality": "ANTEWENEGERRDE",
        "state": "NT",
        "long": 131.298809,
        "lat": -21.949513
    },
    {
        "postcode": "0872",
        "locality": "AREYONGA",
        "state": "NT",
        "long": 131.298809,
        "lat": -21.949513
    },
    {
        "postcode": "0872",
        "locality": "ATITJERE",
        "state": "NT",
        "long": 134.932556,
        "lat": -22.98205755
    },
    {
        "postcode": "0872",
        "locality": "AYERS ROCK",
        "state": "NT",
        "long": 131.298809,
        "lat": -21.949513
    },
    {
        "postcode": "0872",
        "locality": "BARROW CREEK",
        "state": "NT",
        "long": 133.975551,
        "lat": -21.379898
    },
    {
        "postcode": "0872",
        "locality": "BURT PLAIN",
        "state": "NT",
        "long": 133.4488082,
        "lat": -23.36823008
    },
    {
        "postcode": "0872",
        "locality": "CANTEEN CREEK",
        "state": "NT",
        "long": 135.586508,
        "lat": -20.64026544
    },
    {
        "postcode": "0872",
        "locality": "CHILLA WELL",
        "state": "NT",
        "long": 131.3745808,
        "lat": -21.64196866
    },
    {
        "postcode": "0872",
        "locality": "COSTELLO",
        "state": "NT",
        "long": 136.7750667,
        "lat": -21.00078643
    },
    {
        "postcode": "0872",
        "locality": "DAVENPORT",
        "state": "NT",
        "long": 134.8291358,
        "lat": -20.94859492
    },
    {
        "postcode": "0872",
        "locality": "DOCKER RIVER",
        "state": "NT",
        "long": 131.298809,
        "lat": -21.949513
    },
    {
        "postcode": "0872",
        "locality": "ENGAWALA",
        "state": "NT",
        "long": 134.4572304,
        "lat": -22.80352884
    },
    {
        "postcode": "0872",
        "locality": "ERLDUNDA",
        "state": "NT",
        "long": 131.298809,
        "lat": -21.949513
    },
    {
        "postcode": "0872",
        "locality": "FINKE",
        "state": "NT",
        "long": 131.298809,
        "lat": -21.949513
    },
    {
        "postcode": "0872",
        "locality": "GHAN",
        "state": "NT",
        "long": 133.945318,
        "lat": -25.50869599
    },
    {
        "postcode": "0872",
        "locality": "HAASTS BLUFF",
        "state": "NT",
        "long": 131.298809,
        "lat": -21.949513
    },
    {
        "postcode": "0872",
        "locality": "HALE",
        "state": "NT",
        "long": 134.965227,
        "lat": -24.08113872
    },
    {
        "postcode": "0872",
        "locality": "HART",
        "state": "NT",
        "long": 135.5988293,
        "lat": -23.02087465
    },
    {
        "postcode": "0872",
        "locality": "HART RANGE",
        "state": "NT",
        "long": 134.8333333,
        "lat": -23.1666667
    },
    {
        "postcode": "0872",
        "locality": "HERMANNSBURG",
        "state": "NT",
        "long": 132.7960098,
        "lat": -23.93802519
    },
    {
        "postcode": "0872",
        "locality": "HUGH",
        "state": "NT",
        "long": 133.610012,
        "lat": -24.11229981
    },
    {
        "postcode": "0872",
        "locality": "IMAMPA",
        "state": "NT",
        "long": 131.298809,
        "lat": -21.949513
    },
    {
        "postcode": "0872",
        "locality": "IMANPA",
        "state": "NT",
        "long": 132.5687636,
        "lat": -25.1175562
    },
    {
        "postcode": "0872",
        "locality": "ININTI STORE",
        "state": "NT",
        "long": 131.6138326,
        "lat": -23.4686864
    },
    {
        "postcode": "0872",
        "locality": "JAY CREEK",
        "state": "NT",
        "long": 131.298809,
        "lat": -21.949513
    },
    {
        "postcode": "0872",
        "locality": "KALTUKATJARA",
        "state": "NT",
        "long": 129.094528,
        "lat": -24.87255301
    },
    {
        "postcode": "0872",
        "locality": "KINGS CREEK STATION",
        "state": "NT",
        "long": 133.8823863,
        "lat": -23.6730301
    },
    {
        "postcode": "0872",
        "locality": "KINTORE",
        "state": "NT",
        "long": 131.298809,
        "lat": -21.949513
    },
    {
        "postcode": "0872",
        "locality": "KULGERA",
        "state": "NT",
        "long": 133.5,
        "lat": -25.833333
    },
    {
        "postcode": "0872",
        "locality": "KUNPARRKA",
        "state": "NT",
        "long": 131.6609525,
        "lat": -23.34766035
    },
    {
        "postcode": "0872",
        "locality": "LAKE MACKAY",
        "state": "NT",
        "long": 129.836553,
        "lat": -22.56770511
    },
    {
        "postcode": "0872",
        "locality": "LARAMBA",
        "state": "NT",
        "long": 132.7623588,
        "lat": -22.54343571
    },
    {
        "postcode": "0872",
        "locality": "MACDONNELL RANGE",
        "state": "NT",
        "long": 133.8823863,
        "lat": -23.6730301
    },
    {
        "postcode": "0872",
        "locality": "MEREENIE",
        "state": "NT",
        "long": 131.8260951,
        "lat": -23.89506921
    },
    {
        "postcode": "0872",
        "locality": "MOUNT LIEBIG",
        "state": "NT",
        "long": 131.2776674,
        "lat": -23.26801669
    },
    {
        "postcode": "0872",
        "locality": "MOUNT ZEIL",
        "state": "NT",
        "long": 132.3999432,
        "lat": -23.30598045
    },
    {
        "postcode": "0872",
        "locality": "MULGA BORE",
        "state": "NT",
        "long": 131.298809,
        "lat": -21.949513
    },
    {
        "postcode": "0872",
        "locality": "MURPUTJA HOMELANDS",
        "state": "NT",
        "long": 131.298809,
        "lat": -21.949513
    },
    {
        "postcode": "0872",
        "locality": "MUTITJULU",
        "state": "NT",
        "long": 131.0673597,
        "lat": -25.35069546
    },
    {
        "postcode": "0872",
        "locality": "NAMATJIRA",
        "state": "NT",
        "long": 132.5066498,
        "lat": -23.92272359
    },
    {
        "postcode": "0872",
        "locality": "NYIRRIPI",
        "state": "NT",
        "long": 130.5638643,
        "lat": -22.64924233
    },
    {
        "postcode": "0872",
        "locality": "PAPUNYA",
        "state": "NT",
        "long": 131.9131315,
        "lat": -23.20480045
    },
    {
        "postcode": "0872",
        "locality": "PETERMANN",
        "state": "NT",
        "long": 129.9128112,
        "lat": -25.06768646
    },
    {
        "postcode": "0872",
        "locality": "PITJANTJATJARA HOMELANDS",
        "state": "NT",
        "long": 131.298809,
        "lat": -21.949513
    },
    {
        "postcode": "0872",
        "locality": "SANDOVER",
        "state": "NT",
        "long": 135.4818322,
        "lat": -21.98353618
    },
    {
        "postcode": "0872",
        "locality": "SANTA TERESA",
        "state": "NT",
        "long": 131.298809,
        "lat": -21.949513
    },
    {
        "postcode": "0872",
        "locality": "SIMPSON",
        "state": "NT",
        "long": 136.92241,
        "lat": -25.0115767
    },
    {
        "postcode": "0872",
        "locality": "TANAMI",
        "state": "NT",
        "long": 130.5073968,
        "lat": -20.02389415
    },
    {
        "postcode": "0872",
        "locality": "TARA",
        "state": "NT",
        "long": 133.9991919,
        "lat": -21.48332153
    },
    {
        "postcode": "0872",
        "locality": "TELEGRAPH STATION",
        "state": "NT",
        "long": 133.8823863,
        "lat": -23.6730301
    },
    {
        "postcode": "0872",
        "locality": "THANGKENHARENGE",
        "state": "NT",
        "long": 131.298809,
        "lat": -21.949513
    },
    {
        "postcode": "0872",
        "locality": "TI TREE",
        "state": "NT",
        "long": 131.298809,
        "lat": -21.949513
    },
    {
        "postcode": "0872",
        "locality": "TITJIKALA",
        "state": "NT",
        "long": 134.0751086,
        "lat": -24.68023025
    },
    {
        "postcode": "0872",
        "locality": "ULURU",
        "state": "NT",
        "long": 131.298809,
        "lat": -21.949513
    },
    {
        "postcode": "0872",
        "locality": "UMPANGARA",
        "state": "NT",
        "long": 131.298809,
        "lat": -21.949513
    },
    {
        "postcode": "0872",
        "locality": "URAPUNTJA",
        "state": "NT",
        "long": 131.298809,
        "lat": -21.949513
    },
    {
        "postcode": "0872",
        "locality": "WALLACE ROCKHOLE",
        "state": "NT",
        "long": 133.0920217,
        "lat": -24.12316757
    },
    {
        "postcode": "0872",
        "locality": "WANARN",
        "state": "NT",
        "long": 131.298809,
        "lat": -21.949513
    },
    {
        "postcode": "0872",
        "locality": "WILLOWRA",
        "state": "NT",
        "long": 131.298809,
        "lat": -21.949513
    },
    {
        "postcode": "0872",
        "locality": "WILORA",
        "state": "NT",
        "long": 133.7264862,
        "lat": -21.74429359
    },
    {
        "postcode": "0872",
        "locality": "WUTUNUGURRA",
        "state": "NT",
        "long": 135.2504879,
        "lat": -20.46229972
    },
    {
        "postcode": "0872",
        "locality": "YUELAMU",
        "state": "NT",
        "long": 131.298809,
        "lat": -21.949513
    },
    {
        "postcode": "0872",
        "locality": "YUENDUMU",
        "state": "NT",
        "long": 131.298809,
        "lat": -21.949513
    },
    {
        "postcode": "0872",
        "locality": "YULARA",
        "state": "NT",
        "long": 131.298809,
        "lat": -21.949513
    },
    {
        "postcode": "0873",
        "locality": "AMOONGUNA",
        "state": "NT",
        "long": 133.9306532,
        "lat": -23.76846799
    },
    {
        "postcode": "0873",
        "locality": "ARUMBERA",
        "state": "NT",
        "long": 133.8139564,
        "lat": -23.7852622
    },
    {
        "postcode": "0873",
        "locality": "CONNELLAN",
        "state": "NT",
        "long": 133.9102463,
        "lat": -23.80211632
    },
    {
        "postcode": "0873",
        "locality": "ILPARPA",
        "state": "NT",
        "long": 133.8226187,
        "lat": -23.74240746
    },
    {
        "postcode": "0873",
        "locality": "KILGARIFF",
        "state": "NT",
        "long": 133.8848603,
        "lat": -23.77047239
    },
    {
        "postcode": "0873",
        "locality": "ROSS",
        "state": "NT",
        "long": 133.9050112,
        "lat": -23.74471408
    },
    {
        "postcode": "0874",
        "locality": "IRLPME",
        "state": "NT",
        "long": 133.8647591,
        "lat": -23.64690294
    },
    {
        "postcode": "0874",
        "locality": "MOUNT JOHNS",
        "state": "NT",
        "long": 133.9123902,
        "lat": -23.72335988
    },
    {
        "postcode": "0874",
        "locality": "UNDOOLYA",
        "state": "NT",
        "long": 133.9224797,
        "lat": -23.68480339
    },
    {
        "postcode": "0875",
        "locality": "FLYNN",
        "state": "NT",
        "long": 133.8354205,
        "lat": -23.71350386
    },
    {
        "postcode": "0875",
        "locality": "LARAPINTA",
        "state": "NT",
        "long": 133.8311794,
        "lat": -23.68028355
    },
    {
        "postcode": "0880",
        "locality": "GAPUWIYAK",
        "state": "NT",
        "long": 135.7954286,
        "lat": -12.50557433
    },
    {
        "postcode": "0880",
        "locality": "GOVE",
        "state": "NT",
        "long": 136.824863,
        "lat": -11.670366
    },
    {
        "postcode": "0880",
        "locality": "GUNYANGARA",
        "state": "NT",
        "long": 136.7083085,
        "lat": -12.21424182
    },
    {
        "postcode": "0880",
        "locality": "NHULUNBUY",
        "state": "NT",
        "long": 136.824863,
        "lat": -11.670366
    },
    {
        "postcode": "0880",
        "locality": "YIRRKALA",
        "state": "NT",
        "long": 136.8772098,
        "lat": -12.2425718
    },
    {
        "postcode": "0881",
        "locality": "NHULUNBUY",
        "state": "NT",
        "long": 136.824863,
        "lat": -11.670366
    },
    {
        "postcode": "0885",
        "locality": "ALYANGULA",
        "state": "NT",
        "long": 136.420066,
        "lat": -13.85078586
    },
    {
        "postcode": "0886",
        "locality": "JABIRU",
        "state": "NT",
        "long": 132.563373,
        "lat": -13.13118
    },
    {
        "postcode": "0906",
        "locality": "WINNELLIE",
        "state": "NT",
        "long": 136.947051,
        "lat": -13.643283
    },
    {
        "postcode": "0907",
        "locality": "WINNELLIE",
        "state": "NT",
        "long": 136.947051,
        "lat": -13.643283
    },
    {
        "postcode": "0909",
        "locality": "CHARLES DARWIN UNIVERSITY",
        "state": "NT",
        "long": 130.869,
        "lat": -12.3718
    },
    {
        "postcode": "0909",
        "locality": "UNIVERSITY",
        "state": "NT",
        "long": 130.869,
        "lat": -12.3718
    },
    {
        "postcode": "4825",
        "locality": "RANKEN",
        "state": "NT",
        "long": 137.3869421,
        "lat": -20.00590952
    }
]